[{"OBJECT_NAME":"STARLINK-5271","OBJECT_ID":"2022-141AP","EPOCH":"2026-03-09T22:09:12.800448","MEAN_MOTION":15.08840066,"ECCENTRICITY":0.00012061,"INCLINATION":53.2174,"RA_OF_ASC_NODE":353.0364,"ARG_OF_PERICENTER":81.4631,"MEAN_ANOMALY":278.6498,"EPHEMERIS_TYPE":0,"CLASSIFICATION_TYPE":"U","NORAD_CAT_ID":54194,"ELEMENT_SET_NO":999,"REV_AT_EPOCH":18603,"BSTAR":0.00012899367,"MEAN_MOTION_DOT":1.766e-5,"MEAN_MOTION_DDOT":0},{"OBJECT_NAME":"CZ-6A DEB","OBJECT_ID":"2024-140ACM","EPOCH":"2026-03-09T13:49:36.534720","MEAN_MOTION":14.84353282,"ECCENTRICITY":0.0123748,"INCLINATION":89.0471,"RA_OF_ASC_NODE":283.7315,"ARG_OF_PERICENTER":156.1501,"MEAN_ANOMALY":204.5529,"EPHEMERIS_TYPE":0,"CLASSIFICATION_TYPE":"U","NORAD_CAT_ID":61821,"ELEMENT_SET_NO":999,"REV_AT_EPOCH":7938,"BSTAR":0.0013387,"MEAN_MOTION_DOT":0.00012918,"MEAN_MOTION_DDOT":0}]
